ONEWEB-0228             
1 48780U 21045P   23222.39244732 -.00000050  00000+0 -16619-3 0  9996
2 48780  87.8996 106.6448 0001697  83.1662 276.9661 13.15545215108484
